[{"OBJECT_NAME":"STARLINK-5585","OBJECT_ID":"2023-099F","EPOCH":"2026-03-09T13:19:37.533792","MEAN_MOTION":15.02536381,"ECCENTRICITY":0.00010454,"INCLINATION":43.0018,"RA_OF_ASC_NODE":249.9374,"ARG_OF_PERICENTER":248.5296,"MEAN_ANOMALY":111.5435,"EPHEMERIS_TYPE":0,"CLASSIFICATION_TYPE":"U","NORAD_CAT_ID":57333,"ELEMENT_SET_NO":999,"REV_AT_EPOCH":14609,"BSTAR":6.809423e-6,"MEAN_MOTION_DOT":-1.12e-6,"MEAN_MOTION_DDOT":0},{"OBJECT_NAME":"CZ-4B DEB","OBJECT_ID":"2008-053J","EPOCH":"2026-03-09T11:59:22.469568","MEAN_MOTION":15.1637526,"ECCENTRICITY":0.00601661,"INCLINATION":97.7872,"RA_OF_ASC_NODE":170.5072,"ARG_OF_PERICENTER":304.792,"MEAN_ANOMALY":54.7659,"EPHEMERIS_TYPE":0,"CLASSIFICATION_TYPE":"U","NORAD_CAT_ID":35573,"ELEMENT_SET_NO":999,"REV_AT_EPOCH":91868,"BSTAR":0.0017688276,"MEAN_MOTION_DOT":0.00036031,"MEAN_MOTION_DDOT":0}]
